{
  "generated_at": "2026-07-20T08:56:51+00:00",
  "source": "celestrak.org",
  "satellite_count": 9,
  "satellites": [
    {
      "id": "terra",
      "name": "TERRA",
      "platform": "EOS",
      "sensor": "MODIS",
      "swath_km": 2330,
      "color": "#39d0d8",
      "norad": 25994,
      "tle1": "1 25994U 99068A   26200.82984250  .00000153  00000+0  40135-4 0  9994",
      "tle2": "2 25994  97.9437 249.0788 0003572 113.7703 357.4701 14.61125686414373"
    },
    {
      "id": "aqua",
      "name": "AQUA",
      "platform": "EOS",
      "sensor": "MODIS",
      "swath_km": 2330,
      "color": "#2bb673",
      "norad": 27424,
      "tle1": "1 27424U 02022A   26200.89388117  .00000348  00000+0  79001-4 0  9995",
      "tle2": "2 27424  98.4299 170.8350 0001283 102.0464 279.1344 14.62132324288058"
    },
    {
      "id": "snpp",
      "name": "SUOMI NPP",
      "platform": "JPSS",
      "sensor": "VIIRS",
      "swath_km": 3000,
      "color": "#ff8c42",
      "norad": 37849,
      "tle1": "1 37849U 11061A   26200.83455071  .00000019  00000+0  30113-4 0  9994",
      "tle2": "2 37849  98.7955 141.4888 0000979 192.7918 167.3233 14.19523169763071"
    },
    {
      "id": "noaa20",
      "name": "NOAA 20",
      "platform": "JPSS",
      "sensor": "VIIRS",
      "swath_km": 3000,
      "color": "#ffaa00",
      "norad": 43013,
      "tle1": "1 43013U 17073A   26200.77743681  .00000024  00000+0  32532-4 0  9996",
      "tle2": "2 43013  98.7772 139.9515 0001545 119.7113 240.4217 14.19517009449097"
    },
    {
      "id": "noaa21",
      "name": "NOAA 21",
      "platform": "JPSS",
      "sensor": "VIIRS",
      "swath_km": 3000,
      "color": "#ff5a3a",
      "norad": 54234,
      "tle1": "1 54234U 22150A   26200.80966052  .00000016  00000+0  28150-4 0  9990",
      "tle2": "2 54234  98.7059 139.0510 0002913  96.4097 263.7411 14.19541530191173"
    },
    {
      "id": "sentinel2a",
      "name": "SENTINEL-2A",
      "platform": "Copernicus",
      "sensor": "MSI",
      "swath_km": 290,
      "color": "#b388ff",
      "norad": 40697,
      "tle1": "1 40697U 15028A   26200.80211848  .00000064  00000+0  41013-4 0  9996",
      "tle2": "2 40697  98.5670 275.1890 0001296  95.3383 264.7948 14.30815437578392"
    },
    {
      "id": "sentinel2b",
      "name": "SENTINEL-2B",
      "platform": "Copernicus",
      "sensor": "MSI",
      "swath_km": 290,
      "color": "#9d6dff",
      "norad": 42063,
      "tle1": "1 42063U 17013A   26200.86485723 -.00000091  00000+0 -17970-4 0  9999",
      "tle2": "2 42063  98.5678 275.1764 0001229  93.1090 267.0233 14.30815656489315"
    },
    {
      "id": "sentinel3a",
      "name": "SENTINEL-3A",
      "platform": "Copernicus",
      "sensor": "OLCI",
      "swath_km": 1270,
      "color": "#7a4fff",
      "norad": 41335,
      "tle1": "1 41335U 16011A   26200.82693734  .00000037  00000+0  33164-4 0  9997",
      "tle2": "2 41335  98.6233 267.7391 0001317  89.0426 271.0905 14.26740566542719"
    },
    {
      "id": "sentinel3b",
      "name": "SENTINEL-3B",
      "platform": "Copernicus",
      "sensor": "OLCI",
      "swath_km": 1270,
      "color": "#5e3bff",
      "norad": 43437,
      "tle1": "1 43437U 18039A   26200.80008977  .00000034  00000+0  32250-4 0  9993",
      "tle2": "2 43437  98.6232 267.8617 0001247 118.8070 241.3236 14.26737156428770"
    }
  ]
}